start=new Date('2023-02-07T00:00:00.000Z').valueOf();
sats=[{"REV_AT_EPOCH":"2271","ARG_OF_PERICENTER":"90.1891","TLE_LINE2":"2 53828  53.2190 322.7393 0001317  90.1891 269.9252 15.08851336 22714","OBJECT_ID":"2022-114L","TLE_LINE1":"1 53828U 22114L   23037.81971329  .00006493  00000-0  42555-3 0  9997","OBJECT_NAME":"STARLINK-4760","CENTER_NAME":"EARTH","TIME_SYSTEM":"UTC","LAUNCH_DATE":"2022-09-19","MEAN_MOTION_DDOT":"0.0000000000000","GP_ID":"224654808","ECCENTRICITY":"0.00013170","NORAD_CAT_ID":"53828","MEAN_MOTION":"15.08851336","RCS_SIZE":"LARGE","CLASSIFICATION_TYPE":"U","EPOCH":"2023-02-06T19:40:23.228256","OBJECT_TYPE":"PAYLOAD","MEAN_ELEMENT_THEORY":"SGP4","RA_OF_ASC_NODE":"322.7393","INCLINATION":"53.2190","EPHEMERIS_TYPE":"0","APOAPSIS":"540.622","REF_FRAME":"TEME","PERIOD":"95.437","COUNTRY_CODE":"US","BSTAR":"0.00042555000000","PERIAPSIS":"538.800","MEAN_ANOMALY":"269.9252","ELEMENT_SET_NO":"999","SITE":"AFETR","SEMIMAJOR_AXIS":"6917.846","FILE":"3776034","MEAN_MOTION_DOT":"0.00006493","DECAY_DATE":null},{"TLE_LINE2":"2 53829  53.2194 323.1042 0001174  96.4490 263.6636 15.08834846 22703","ARG_OF_PERICENTER":"96.4490","REV_AT_EPOCH":"2270","GP_ID":"224653563","ECCENTRICITY":"0.00011740","NORAD_CAT_ID":"53829","MEAN_MOTION":"15.08834846","CENTER_NAME":"EARTH","TIME_SYSTEM":"UTC","LAUNCH_DATE":"2022-09-19","MEAN_MOTION_DDOT":"0.0000000000000","OBJECT_NAME":"STARLINK-4759","OBJECT_ID":"2022-114M","TLE_LINE1":"1 53829U 22114M   23037.76453081  .00001041  00000-0  83479-4 0  9997","EPHEMERIS_TYPE":"0","APOAPSIS":"540.573","REF_FRAME":"TEME","MEAN_ELEMENT_THEORY":"SGP4","RA_OF_ASC_NODE":"323.1042","INCLINATION":"53.2194","OBJECT_TYPE":"PAYLOAD","RCS_SIZE":"LARGE","CLASSIFICATION_TYPE":"U","EPOCH":"2023-02-06T18:20:55.461984","MEAN_MOTION_DOT":"0.00001041","DECAY_DATE":null,"ELEMENT_SET_NO":"999","SITE":"AFETR","SEMIMAJOR_AXIS":"6917.896","FILE":"3776034","BSTAR":"0.00008347900000","PERIAPSIS":"538.949","MEAN_ANOMALY":"263.6636","PERIOD":"95.438","COUNTRY_CODE":"US"},{"ARG_OF_PERICENTER":"86.3851","REV_AT_EPOCH":"2219","TLE_LINE2":"2 53830  53.2189 322.0971 0001263  86.3851 273.7285 15.08847080 22195","OBJECT_NAME":"STARLINK-4761","TLE_LINE1":"1 53830U 22114N   23037.94482006  .00001150  00000-0  90304-4 0  9994","OBJECT_ID":"2022-114N","NORAD_CAT_ID":"53830","MEAN_MOTION":"15.08847080","GP_ID":"224626711","ECCENTRICITY":"0.00012630","MEAN_MOTION_DDOT":"0.0000000000000","LAUNCH_DATE":"2022-09-19","CENTER_NAME":"EARTH","TIME_SYSTEM":"UTC","OBJECT_TYPE":"PAYLOAD","EPOCH":"2023-02-06T22:40:32.453184","CLASSIFICATION_TYPE":"U","RCS_SIZE":"LARGE","APOAPSIS":"540.597","REF_FRAME":"TEME","EPHEMERIS_TYPE":"0","INCLINATION":"53.2189","MEAN_ELEMENT_THEORY":"SGP4","RA_OF_ASC_NODE":"322.0971","PERIAPSIS":"538.850","MEAN_ANOMALY":"273.7285","BSTAR":"0.00009030400000","PERIOD":"95.437","COUNTRY_CODE":"US","DECAY_DATE":null,"MEAN_MOTION_DOT":"0.00001150","FILE":"3775941","SITE":"AFETR","ELEMENT_SET_NO":"999","SEMIMAJOR_AXIS":"6917.859"},{"TLE_LINE2":"2 53831  53.2189 322.7817 0001196  85.8634 274.2495 15.08849710 22719","ARG_OF_PERICENTER":"85.8634","REV_AT_EPOCH":"2271","NORAD_CAT_ID":"53831","MEAN_MOTION":"15.08849710","GP_ID":"224655057","ECCENTRICITY":"0.00011960","MEAN_MOTION_DDOT":"0.0000000000000","LAUNCH_DATE":"2022-09-19","TIME_SYSTEM":"UTC","CENTER_NAME":"EARTH","OBJECT_NAME":"STARLINK-4649","TLE_LINE1":"1 53831U 22114P   23037.82708496  .00004239  00000-0  28416-3 0  9991","OBJECT_ID":"2022-114P","APOAPSIS":"540.543","REF_FRAME":"TEME","EPHEMERIS_TYPE":"0","INCLINATION":"53.2189","MEAN_ELEMENT_THEORY":"SGP4","RA_OF_ASC_NODE":"322.7817","OBJECT_TYPE":"PAYLOAD","EPOCH":"2023-02-06T19:51:00.140544","CLASSIFICATION_TYPE":"U","RCS_SIZE":"LARGE","DECAY_DATE":null,"MEAN_MOTION_DOT":"0.00004239","FILE":"3776034","SITE":"AFETR","SEMIMAJOR_AXIS":"6917.851","ELEMENT_SET_NO":"999","PERIAPSIS":"538.888","MEAN_ANOMALY":"274.2495","BSTAR":"0.00028416000000","PERIOD":"95.437","COUNTRY_CODE":"US"},{"MEAN_ANOMALY":"284.0321","PERIAPSIS":"538.920","BSTAR":"0.00046039000000","COUNTRY_CODE":"US","PERIOD":"95.437","DECAY_DATE":null,"MEAN_MOTION_DOT":"0.00007050","FILE":"3775941","SITE":"AFETR","ELEMENT_SET_NO":"999","SEMIMAJOR_AXIS":"6917.839","OBJECT_TYPE":"PAYLOAD","EPOCH":"2023-02-06T22:29:55.871808","CLASSIFICATION_TYPE":"U","RCS_SIZE":"LARGE","APOAPSIS":"540.487","REF_FRAME":"TEME","EPHEMERIS_TYPE":"0","INCLINATION":"53.2192","RA_OF_ASC_NODE":"322.0519","MEAN_ELEMENT_THEORY":"SGP4","OBJECT_NAME":"STARLINK-4747","TLE_LINE1":"1 53832U 22114Q   23037.93745222  .00007050  00000-0  46039-3 0  9997","OBJECT_ID":"2022-114Q","MEAN_MOTION":"15.08853647","NORAD_CAT_ID":"53832","GP_ID":"224627043","ECCENTRICITY":"0.00011330","MEAN_MOTION_DDOT":"0.0000000000000","LAUNCH_DATE":"2022-09-19","CENTER_NAME":"EARTH","TIME_SYSTEM":"UTC","ARG_OF_PERICENTER":"76.0797","REV_AT_EPOCH":"2219","TLE_LINE2":"2 53832  53.2192 322.0519 0001133  76.0797 284.0321 15.08853647 22192"},{"ELEMENT_SET_NO":"999","SITE":"AFETR","SEMIMAJOR_AXIS":"6917.867","FILE":"3776034","MEAN_MOTION_DOT":"0.00002459","DECAY_DATE":null,"PERIOD":"95.437","COUNTRY_CODE":"US","BSTAR":"0.00017251000000","PERIAPSIS":"538.845","MEAN_ANOMALY":"274.3620","MEAN_ELEMENT_THEORY":"SGP4","RA_OF_ASC_NODE":"322.7170","INCLINATION":"53.2199","EPHEMERIS_TYPE":"0","REF_FRAME":"TEME","APOAPSIS":"540.619","RCS_SIZE":"LARGE","CLASSIFICATION_TYPE":"U","EPOCH":"2023-02-06T19:35:05.091360","OBJECT_TYPE":"PAYLOAD","CENTER_NAME":"EARTH","TIME_SYSTEM":"UTC","LAUNCH_DATE":"2022-09-19","MEAN_MOTION_DDOT":"0.0000000000000","GP_ID":"224654062","ECCENTRICITY":"0.00012820","NORAD_CAT_ID":"53833","MEAN_MOTION":"15.08844341","OBJECT_ID":"2022-114R","TLE_LINE1":"1 53833U 22114R   23037.81603115  .00002459  00000-0  17251-3 0  9991","OBJECT_NAME":"STARLINK-4771","TLE_LINE2":"2 53833  53.2199 322.7170 0001282  85.7518 274.3620 15.08844341 22716","REV_AT_EPOCH":"2271","ARG_OF_PERICENTER":"85.7518"},{"MEAN_MOTION_DOT":"0.00005465","DECAY_DATE":null,"SITE":"AFETR","ELEMENT_SET_NO":"999","SEMIMAJOR_AXIS":"6917.840","FILE":"3775942","BSTAR":"0.00036105000000","MEAN_ANOMALY":"274.8680","PERIAPSIS":"538.853","COUNTRY_CODE":"US","PERIOD":"95.437","EPHEMERIS_TYPE":"0","APOAPSIS":"540.557","REF_FRAME":"TEME","RA_OF_ASC_NODE":"322.0104","MEAN_ELEMENT_THEORY":"SGP4","INCLINATION":"53.2183","OBJECT_TYPE":"PAYLOAD","RCS_SIZE":"LARGE","CLASSIFICATION_TYPE":"U","EPOCH":"2023-02-06T22:19:19.419168","GP_ID":"224627060","ECCENTRICITY":"0.00012320","MEAN_MOTION":"15.08853237","NORAD_CAT_ID":"53834","CENTER_NAME":"EARTH","TIME_SYSTEM":"UTC","MEAN_MOTION_DDOT":"0.0000000000000","LAUNCH_DATE":"2022-09-19","OBJECT_NAME":"STARLINK-4737","OBJECT_ID":"2022-114S","TLE_LINE1":"1 53834U 22114S   23037.93008587  .00005465  00000-0  36105-3 0  9996","TLE_LINE2":"2 53834  53.2183 322.0104 0001232  85.2453 274.8680 15.08853237 22195","ARG_OF_PERICENTER":"85.2453","REV_AT_EPOCH":"2219"},{"COUNTRY_CODE":"US","PERIOD":"95.437","MEAN_ANOMALY":"259.2607","PERIAPSIS":"538.783","BSTAR":"0.00044702000000","FILE":"3775942","ELEMENT_SET_NO":"999","SITE":"AFETR","SEMIMAJOR_AXIS":"6917.830","DECAY_DATE":null,"MEAN_MOTION_DOT":"0.00006837","EPOCH":"2023-02-06T22:35:13.991424","CLASSIFICATION_TYPE":"U","RCS_SIZE":"LARGE","OBJECT_TYPE":"PAYLOAD","INCLINATION":"53.2191","RA_OF_ASC_NODE":"322.0697","MEAN_ELEMENT_THEORY":"SGP4","APOAPSIS":"540.608","REF_FRAME":"TEME","EPHEMERIS_TYPE":"0","TLE_LINE1":"1 53835U 22114T   23037.94113416  .00006837  00000-0  44702-3 0  9992","OBJECT_ID":"2022-114T","OBJECT_NAME":"STARLINK-4783","LAUNCH_DATE":"2022-09-19","MEAN_MOTION_DDOT":"0.0000000000000","TIME_SYSTEM":"UTC","CENTER_NAME":"EARTH","MEAN_MOTION":"15.08856368","NORAD_CAT_ID":"53835","ECCENTRICITY":"0.00013190","GP_ID":"224626728","REV_AT_EPOCH":"2219","ARG_OF_PERICENTER":"100.8533","TLE_LINE2":"2 53835  53.2191 322.0697 0001319 100.8533 259.2607 15.08856368 22195"},{"DECAY_DATE":null,"MEAN_MOTION_DOT":"0.00020896","FILE":"3775254","SEMIMAJOR_AXIS":"6917.819","SITE":"AFETR","ELEMENT_SET_NO":"999","MEAN_ANOMALY":"282.3190","PERIAPSIS":"538.879","BSTAR":"0.00132640000000","COUNTRY_CODE":"US","PERIOD":"95.436","REF_FRAME":"TEME","APOAPSIS":"540.490","EPHEMERIS_TYPE":"0","INCLINATION":"53.2184","RA_OF_ASC_NODE":"315.8919","MEAN_ELEMENT_THEORY":"SGP4","OBJECT_TYPE":"PAYLOAD","EPOCH":"2023-02-06T04:25:00.346656","CLASSIFICATION_TYPE":"U","RCS_SIZE":"LARGE","MEAN_MOTION":"15.08859924","NORAD_CAT_ID":"53836","GP_ID":"224612731","ECCENTRICITY":"0.00011640","LAUNCH_DATE":"2022-09-19","MEAN_MOTION_DDOT":"0.0000000000000","TIME_SYSTEM":"UTC","CENTER_NAME":"EARTH","OBJECT_NAME":"STARLINK-4778","TLE_LINE1":"1 53836U 22114U   23037.18403179  .00020896  00000-0  13264-2 0  9996","OBJECT_ID":"2022-114U","TLE_LINE2":"2 53836  53.2184 315.8919 0001164  77.7932 282.3190 15.08859924 22755","ARG_OF_PERICENTER":"77.7932","REV_AT_EPOCH":"2275"},{"MEAN_MOTION_DOT":"0.00008733","DECAY_DATE":null,"SITE":"AFETR","SEMIMAJOR_AXIS":"6917.813","ELEMENT_SET_NO":"999","FILE":"3775942","BSTAR":"0.00056577000000","MEAN_ANOMALY":"273.2380","PERIAPSIS":"538.702","COUNTRY_CODE":"US","PERIOD":"95.436","EPHEMERIS_TYPE":"0","APOAPSIS":"540.655","REF_FRAME":"TEME","RA_OF_ASC_NODE":"322.0338","MEAN_ELEMENT_THEORY":"SGP4","INCLINATION":"53.2179","OBJECT_TYPE":"PAYLOAD","RCS_SIZE":"LARGE","CLASSIFICATION_TYPE":"U","EPOCH":"2023-02-06T22:24:37.880928","ECCENTRICITY":"0.00014120","GP_ID":"224627053","MEAN_MOTION":"15.08861946","NORAD_CAT_ID":"53837","CENTER_NAME":"EARTH","TIME_SYSTEM":"UTC","LAUNCH_DATE":"2022-09-19","MEAN_MOTION_DDOT":"0.0000000000000","OBJECT_NAME":"STARLINK-4776","OBJECT_ID":"2022-114V","TLE_LINE1":"1 53837U 22114V   23037.93377177  .00008733  00000-0  56577-3 0  9999","TLE_LINE2":"2 53837  53.2179 322.0338 0001412  86.8774 273.2380 15.08861946 22191","ARG_OF_PERICENTER":"86.8774","REV_AT_EPOCH":"2219"}];
